STARLINK-30502          
1 57973U 23151K   26087.69255241  .00000881  00000+0  41538-4 0  9991
2 57973  43.0018 228.5852 0000861 289.0999  70.9760 15.27557406138678
STARLINK-30489          
1 57974U 23151L   26087.82845015  .00001331  00000+0  57883-4 0  9992
2 57974  43.0056 227.8859 0001863 293.9081  66.1576 15.27577148138698
STARLINK-30503          
1 57975U 23151M   26087.72596534 -.00000323  00000+0 -22222-5 0  9993
2 57975  43.0027 228.8109 0000965 273.0522  87.0219 15.27558973138676
STARLINK-30512          
1 57976U 23151N   26087.75533744  .00001328  00000+0  57782-4 0  9993
2 57976  42.9999 228.1421 0001159 263.8202  96.2517 15.27581854138689
STARLINK-30509          
1 57977U 23151P   26087.71768162  .00001508  00000+0  64344-4 0  9996
2 57977  43.0046 243.2038 0001877 267.2431  92.8206 15.27574307138509
STARLINK-30511          
1 57978U 23151Q   26087.72077373  .00002458  00000+0  10123-3 0  9995
2 57978  43.0016 243.2278 0001586 264.7864  95.2807 15.26758458138506
STARLINK-30508          
1 57979U 23151R   26087.85872778  .00003377  00000+0  13213-3 0  9996
2 57979  43.0001 242.5350 0001149 275.9534  84.1186 15.27589653138526
STARLINK-30510          
1 57981U 23151T   26087.83335647  .00082952  00000+0  29924-2 0  9997
2 57981  43.0007 245.8040 0001418 273.7060  69.6278 15.27555657  5661
STARLINK-30507          
1 57982U 23151U   26087.83335647  .00068316  00000+0  24749-2 0  9996
2 57982  43.0002 245.8532 0001618 276.4931  45.8063 15.27504531  5766
STARLINK-30515          
1 57983U 23151V   26087.76275956  .00008887  00000+0  34053-3 0  9992
2 57983  43.0035 246.0878 0003079 261.9212  98.1290 15.26743134138463
STARLINK-30516          
1 57984U 23151W   26087.84283043  .00001912  00000+0  80917-4 0  9991
2 57984  43.0007 245.8292 0001568 270.1124  89.9547 15.26744736138489
STARLINK-30519          
1 57985U 23151X   26087.73309750  .00004122  00000+0  15918-3 0  9998
2 57985  43.0021 243.3121 0001843 270.2262  89.8378 15.27588410138443
STARLINK-30537          
1 57991U 23153A   26087.36583679  .00002436  00000+0  98017-4 0  9998
2 57991  43.0023 321.5041 0001196 257.1912 102.8806 15.27585100137656
STARLINK-30534          
1 57992U 23153B   26087.35170153  .00011907  00000+0  44140-3 0  9997
2 57992  43.0004 321.3894 0001576 257.2003 102.8673 15.27588129137650
STARLINK-30536          
1 57993U 23153C   26087.68814982 -.00456282  00000+0 -18775-1 0  9993
2 57993  43.0046 319.6166 0006525   1.6228 358.4643 15.25450417137807
STARLINK-30538          
1 57994U 23153D   26087.63894499  .00001754  00000+0  73224-4 0  9991
2 57994  43.0029 320.1080 0001216 280.9531  79.1184 15.27590196137697
