[{"OBJECT_NAME":"STARLINK-30502","OBJECT_ID":"2023-151K","EPOCH":"2026-03-28T16:37:16.528224","MEAN_MOTION":15.27557406,"ECCENTRICITY":8.61e-5,"INCLINATION":43.0018,"RA_OF_ASC_NODE":228.5852,"ARG_OF_PERICENTER":289.0999,"MEAN_ANOMALY":70.976,"EPHEMERIS_TYPE":0,"CLASSIFICATION_TYPE":"U","NORAD_CAT_ID":57973,"ELEMENT_SET_NO":999,"REV_AT_EPOCH":13867,"BSTAR":4.1538e-5,"MEAN_MOTION_DOT":8.81e-6,"MEAN_MOTION_DDOT":0},{"OBJECT_NAME":"STARLINK-30489","OBJECT_ID":"2023-151L","EPOCH":"2026-03-28T19:52:58.092960","MEAN_MOTION":15.27577148,"ECCENTRICITY":0.0001863,"INCLINATION":43.0056,"RA_OF_ASC_NODE":227.8859,"ARG_OF_PERICENTER":293.9081,"MEAN_ANOMALY":66.1576,"EPHEMERIS_TYPE":0,"CLASSIFICATION_TYPE":"U","NORAD_CAT_ID":57974,"ELEMENT_SET_NO":999,"REV_AT_EPOCH":13869,"BSTAR":5.7883e-5,"MEAN_MOTION_DOT":1.331e-5,"MEAN_MOTION_DDOT":0},{"OBJECT_NAME":"STARLINK-30503","OBJECT_ID":"2023-151M","EPOCH":"2026-03-28T17:25:23.405376","MEAN_MOTION":15.27558973,"ECCENTRICITY":9.65e-5,"INCLINATION":43.0027,"RA_OF_ASC_NODE":228.8109,"ARG_OF_PERICENTER":273.0522,"MEAN_ANOMALY":87.0219,"EPHEMERIS_TYPE":0,"CLASSIFICATION_TYPE":"U","NORAD_CAT_ID":57975,"ELEMENT_SET_NO":999,"REV_AT_EPOCH":13867,"BSTAR":-2.2222e-6,"MEAN_MOTION_DOT":-3.23e-6,"MEAN_MOTION_DDOT":0},{"OBJECT_NAME":"STARLINK-30512","OBJECT_ID":"2023-151N","EPOCH":"2026-03-28T18:07:41.154816","MEAN_MOTION":15.27581854,"ECCENTRICITY":0.0001159,"INCLINATION":42.9999,"RA_OF_ASC_NODE":228.1421,"ARG_OF_PERICENTER":263.8202,"MEAN_ANOMALY":96.2517,"EPHEMERIS_TYPE":0,"CLASSIFICATION_TYPE":"U","NORAD_CAT_ID":57976,"ELEMENT_SET_NO":999,"REV_AT_EPOCH":13868,"BSTAR":5.7782e-5,"MEAN_MOTION_DOT":1.328e-5,"MEAN_MOTION_DDOT":0},{"OBJECT_NAME":"STARLINK-30509","OBJECT_ID":"2023-151P","EPOCH":"2026-03-28T17:13:27.691968","MEAN_MOTION":15.27574307,"ECCENTRICITY":0.0001877,"INCLINATION":43.0046,"RA_OF_ASC_NODE":243.2038,"ARG_OF_PERICENTER":267.2431,"MEAN_ANOMALY":92.8206,"EPHEMERIS_TYPE":0,"CLASSIFICATION_TYPE":"U","NORAD_CAT_ID":57977,"ELEMENT_SET_NO":999,"REV_AT_EPOCH":13850,"BSTAR":6.4344e-5,"MEAN_MOTION_DOT":1.508e-5,"MEAN_MOTION_DDOT":0},{"OBJECT_NAME":"STARLINK-30511","OBJECT_ID":"2023-151Q","EPOCH":"2026-03-28T17:17:54.850272","MEAN_MOTION":15.26758458,"ECCENTRICITY":0.0001586,"INCLINATION":43.0016,"RA_OF_ASC_NODE":243.2278,"ARG_OF_PERICENTER":264.7864,"MEAN_ANOMALY":95.2807,"EPHEMERIS_TYPE":0,"CLASSIFICATION_TYPE":"U","NORAD_CAT_ID":57978,"ELEMENT_SET_NO":999,"REV_AT_EPOCH":13850,"BSTAR":0.00010123,"MEAN_MOTION_DOT":2.458e-5,"MEAN_MOTION_DDOT":0},{"OBJECT_NAME":"STARLINK-30508","OBJECT_ID":"2023-151R","EPOCH":"2026-03-28T20:36:34.080192","MEAN_MOTION":15.27589653,"ECCENTRICITY":0.0001149,"INCLINATION":43.0001,"RA_OF_ASC_NODE":242.535,"ARG_OF_PERICENTER":275.9534,"MEAN_ANOMALY":84.1186,"EPHEMERIS_TYPE":0,"CLASSIFICATION_TYPE":"U","NORAD_CAT_ID":57979,"ELEMENT_SET_NO":999,"REV_AT_EPOCH":13852,"BSTAR":0.00013213,"MEAN_MOTION_DOT":3.377e-5,"MEAN_MOTION_DDOT":0},{"OBJECT_NAME":"STARLINK-30510","OBJECT_ID":"2023-151T","EPOCH":"2026-03-28T20:00:01.999008","MEAN_MOTION":15.27555657,"ECCENTRICITY":0.0001418,"INCLINATION":43.0007,"RA_OF_ASC_NODE":245.804,"ARG_OF_PERICENTER":273.706,"MEAN_ANOMALY":69.6278,"EPHEMERIS_TYPE":0,"CLASSIFICATION_TYPE":"U","NORAD_CAT_ID":57981,"ELEMENT_SET_NO":999,"REV_AT_EPOCH":566,"BSTAR":0.0029924,"MEAN_MOTION_DOT":0.00082952,"MEAN_MOTION_DDOT":0},{"OBJECT_NAME":"STARLINK-30507","OBJECT_ID":"2023-151U","EPOCH":"2026-03-28T20:00:01.999008","MEAN_MOTION":15.27504531,"ECCENTRICITY":0.0001618,"INCLINATION":43.0002,"RA_OF_ASC_NODE":245.8532,"ARG_OF_PERICENTER":276.4931,"MEAN_ANOMALY":45.8063,"EPHEMERIS_TYPE":0,"CLASSIFICATION_TYPE":"U","NORAD_CAT_ID":57982,"ELEMENT_SET_NO":999,"REV_AT_EPOCH":576,"BSTAR":0.0024749,"MEAN_MOTION_DOT":0.00068316,"MEAN_MOTION_DDOT":0},{"OBJECT_NAME":"STARLINK-30515","OBJECT_ID":"2023-151V","EPOCH":"2026-03-28T18:18:22.425984","MEAN_MOTION":15.26743134,"ECCENTRICITY":0.0003079,"INCLINATION":43.0035,"RA_OF_ASC_NODE":246.0878,"ARG_OF_PERICENTER":261.9212,"MEAN_ANOMALY":98.129,"EPHEMERIS_TYPE":0,"CLASSIFICATION_TYPE":"U","NORAD_CAT_ID":57983,"ELEMENT_SET_NO":999,"REV_AT_EPOCH":13846,"BSTAR":0.00034053,"MEAN_MOTION_DOT":8.887e-5,"MEAN_MOTION_DDOT":0},{"OBJECT_NAME":"STARLINK-30516","OBJECT_ID":"2023-151W","EPOCH":"2026-03-28T20:13:40.549152","MEAN_MOTION":15.26744736,"ECCENTRICITY":0.0001568,"INCLINATION":43.0007,"RA_OF_ASC_NODE":245.8292,"ARG_OF_PERICENTER":270.1124,"MEAN_ANOMALY":89.9547,"EPHEMERIS_TYPE":0,"CLASSIFICATION_TYPE":"U","NORAD_CAT_ID":57984,"ELEMENT_SET_NO":999,"REV_AT_EPOCH":13848,"BSTAR":8.0917e-5,"MEAN_MOTION_DOT":1.912e-5,"MEAN_MOTION_DDOT":0},{"OBJECT_NAME":"STARLINK-30519","OBJECT_ID":"2023-151X","EPOCH":"2026-03-28T17:35:39.624000","MEAN_MOTION":15.2758841,"ECCENTRICITY":0.0001843,"INCLINATION":43.0021,"RA_OF_ASC_NODE":243.3121,"ARG_OF_PERICENTER":270.2262,"MEAN_ANOMALY":89.8378,"EPHEMERIS_TYPE":0,"CLASSIFICATION_TYPE":"U","NORAD_CAT_ID":57985,"ELEMENT_SET_NO":999,"REV_AT_EPOCH":13844,"BSTAR":0.00015918,"MEAN_MOTION_DOT":4.122e-5,"MEAN_MOTION_DDOT":0},{"OBJECT_NAME":"STARLINK-30537","OBJECT_ID":"2023-153A","EPOCH":"2026-03-28T08:46:48.298656","MEAN_MOTION":15.275851,"ECCENTRICITY":0.00011965,"INCLINATION":43.0023,"RA_OF_ASC_NODE":321.5041,"ARG_OF_PERICENTER":257.1912,"MEAN_ANOMALY":102.8806,"EPHEMERIS_TYPE":0,"CLASSIFICATION_TYPE":"U","NORAD_CAT_ID":57991,"ELEMENT_SET_NO":999,"REV_AT_EPOCH":13765,"BSTAR":9.8017214e-5,"MEAN_MOTION_DOT":2.436e-5,"MEAN_MOTION_DDOT":0},{"OBJECT_NAME":"STARLINK-30534","OBJECT_ID":"2023-153B","EPOCH":"2026-03-28T08:26:27.012192","MEAN_MOTION":15.27588129,"ECCENTRICITY":0.00015762,"INCLINATION":43.0004,"RA_OF_ASC_NODE":321.3894,"ARG_OF_PERICENTER":257.2003,"MEAN_ANOMALY":102.8673,"EPHEMERIS_TYPE":0,"CLASSIFICATION_TYPE":"U","NORAD_CAT_ID":57992,"ELEMENT_SET_NO":999,"REV_AT_EPOCH":13765,"BSTAR":0.00044140131,"MEAN_MOTION_DOT":0.00011907,"MEAN_MOTION_DDOT":0},{"OBJECT_NAME":"STARLINK-30536","OBJECT_ID":"2023-153C","EPOCH":"2026-03-28T16:30:56.144448","MEAN_MOTION":15.25450417,"ECCENTRICITY":0.0006525,"INCLINATION":43.0046,"RA_OF_ASC_NODE":319.6166,"ARG_OF_PERICENTER":1.6228,"MEAN_ANOMALY":358.4643,"EPHEMERIS_TYPE":0,"CLASSIFICATION_TYPE":"U","NORAD_CAT_ID":57993,"ELEMENT_SET_NO":999,"REV_AT_EPOCH":13780,"BSTAR":-0.018775,"MEAN_MOTION_DOT":-0.00456282,"MEAN_MOTION_DDOT":0},{"OBJECT_NAME":"STARLINK-30538","OBJECT_ID":"2023-153D","EPOCH":"2026-03-28T15:20:04.847136","MEAN_MOTION":15.27590196,"ECCENTRICITY":0.0001216,"INCLINATION":43.0029,"RA_OF_ASC_NODE":320.108,"ARG_OF_PERICENTER":280.9531,"MEAN_ANOMALY":79.1184,"EPHEMERIS_TYPE":0,"CLASSIFICATION_TYPE":"U","NORAD_CAT_ID":57994,"ELEMENT_SET_NO":999,"REV_AT_EPOCH":13769,"BSTAR":7.3224e-5,"MEAN_MOTION_DOT":1.754e-5,"MEAN_MOTION_DDOT":0}]
